MONOLITH                
1 49052U 21068A   26068.54548855  .00008348  00000+0  53656-3 0  9993
2 49052  37.0220 141.2957 0002679 131.6464 228.4511 15.08010119252226
STARLINK-4552           
1 53420U 22097AJ  26068.54034596 -.00000169  00000+0  74600-5 0  9990
2 53420  53.2159 114.7924 0001207  83.9383 276.1747 15.08836131198607
