[{"OBJECT_NAME":"MONOLITH","OBJECT_ID":"2021-068A","EPOCH":"2026-03-09T13:05:30.210720","MEAN_MOTION":15.08010119,"ECCENTRICITY":0.00026796,"INCLINATION":37.022,"RA_OF_ASC_NODE":141.2957,"ARG_OF_PERICENTER":131.6464,"MEAN_ANOMALY":228.4511,"EPHEMERIS_TYPE":0,"CLASSIFICATION_TYPE":"U","NORAD_CAT_ID":49052,"ELEMENT_SET_NO":999,"REV_AT_EPOCH":25222,"BSTAR":0.00053655804,"MEAN_MOTION_DOT":8.348e-5,"MEAN_MOTION_DDOT":0},{"OBJECT_NAME":"STARLINK-4552","OBJECT_ID":"2022-097AJ","EPOCH":"2026-03-09T12:58:05.890944","MEAN_MOTION":15.08836131,"ECCENTRICITY":0.00012075,"INCLINATION":53.2159,"RA_OF_ASC_NODE":114.7924,"ARG_OF_PERICENTER":83.9383,"MEAN_ANOMALY":276.1747,"EPHEMERIS_TYPE":0,"CLASSIFICATION_TYPE":"U","NORAD_CAT_ID":53420,"ELEMENT_SET_NO":999,"REV_AT_EPOCH":19860,"BSTAR":7.46002e-6,"MEAN_MOTION_DOT":-1.69e-6,"MEAN_MOTION_DDOT":0}]
